[{"OBJECT_ID":"2009-046A","OBJECT_NAME":"PALAPA D","NORAD_CAT_ID":"35812","OBJECT_TYPE":"PAYLOAD","PERIOD":"1436.202","INCLINATION":"0.0207","APOGEE":"35794.545","PERIGEE":"35782.797","ECCENTRICITY":"0.0001393","MEAN_MOTION":"1.00264385","TLE_LINE1":"1 35812U 09046A   16238.04372948  .00000000  00000-0  10000-3 0  9999","TLE_LINE2":"2 35812   0.0207  82.6054 0001393  66.0233 313.7534  1.00264385 25755","LAUNCH_DATE":"2009-08-31","LAUNCH_SITE":"Xichang Space Center, China","OWNER":"INDONESIA","ORBIT_TYPE":"Geosynchronous","OPERATIONAL_STATUS":"Operational","satInfo":{"lng":50.51344843457502,"lat":-1.0169908572448259,"elevation":-9.56192407975192,"azimuth":264.486551565425,"range":42772.580492997775,"height":35806.82730180964,"velocity":3.073822954806625},"x":276,"y":-228,"dx":20,"dy":-24},{"OBJECT_ID":"2009-050A","OBJECT_NAME":"NIMIQ 5","NORAD_CAT_ID":"35873","OBJECT_TYPE":"PAYLOAD","PERIOD":"1436.101","INCLINATION":"0.0533","APOGEE":"35794.761","PERIGEE":"35778.603","ECCENTRICITY":"0.0001916","MEAN_MOTION":"1.00271479","TLE_LINE1":"1 35873U 09050A   16238.29841834 -.00000283  00000-0  00000+0 0  9992","TLE_LINE2":"2 35873   0.0533 281.2291 0001916 235.3819 212.0984  1.00271479 25433","LAUNCH_DATE":"2009-09-17","LAUNCH_SITE":"TYURATAM MISSILE AND SPACE COMPLEX","OWNER":"CANADA","ORBIT_TYPE":"Geosynchronous","OPERATIONAL_STATUS":"Operational","satInfo":{"lng":-90.08225286333912,"lat":-0.21439702139793226,"elevation":-8.78072541006649,"azimuth":45.08225286333907,"range":42676.98476650809,"height":35798.95955835384,"velocity":3.0742881600679026},"x":-358,"y":1,"dx":0,"dy":31},{"OBJECT_ID":"2009-054A","OBJECT_NAME":"AMAZONAS 2","NORAD_CAT_ID":"35942","OBJECT_TYPE":"PAYLOAD","PERIOD":"1436.121","INCLINATION":"0.021","APOGEE":"35810.975","PERIGEE":"35763.168","ECCENTRICITY":"0.0005669","MEAN_MOTION":"1.00270091","TLE_LINE1":"1 35942U 09054A   16238.77812355 -.00000310  00000-0  00000+0 0  9993","TLE_LINE2":"2 35942   0.0210 163.7689 0005669 359.1854  30.6097  1.00270091 25269","LAUNCH_DATE":"2009-09-30","LAUNCH_SITE":"FRENCH GUIANA","OWNER":"SPAIN","ORBIT_TYPE":"Geosynchronous","OPERATIONAL_STATUS":"Operational","satInfo":{"lng":-71.7635781893054,"lat":0.6201259017970768,"elevation":-7.964898766688513,"azimuth":26.763578189305356,"range":42586.70774908834,"height":35800.21086025307,"velocity":3.074161687781225},"x":-340,"y":-112,"dx":10,"dy":29},{"OBJECT_ID":"2009-054B","OBJECT_NAME":"COMSATBW-1","NORAD_CAT_ID":"35943","OBJECT_TYPE":"PAYLOAD","PERIOD":"1436.087","INCLINATION":"0.056","APOGEE":"35797.183","PERIGEE":"35775.654","ECCENTRICITY":"0.0002553","MEAN_MOTION":"1.0027242","TLE_LINE1":"1 35943U 09054B   16238.86239844 -.00000003 +00000-0 +00000-0 0  9990","TLE_LINE2":"2 35943 000.0560 099.6855 0002553 080.8352 167.4652 01.00272420025387","LAUNCH_DATE":"2009-09-30","LAUNCH_SITE":"FRENCH GUIANA","OWNER":"GERMANY","ORBIT_TYPE":"Geosynchronous","OPERATIONAL_STATUS":"Operational","satInfo":{"lng":87.34903973415436,"lat":-0.26662121312732595,"elevation":-8.832821343269472,"azimuth":227.65096026584564,"range":42677.19441940214,"height":35793.38690125402,"velocity":3.074217196926059},"x":358,"y":-17,"dx":1,"dy":-31},{"OBJECT_ID":"2009-058A","OBJECT_NAME":"NSS 12","NORAD_CAT_ID":"36032","OBJECT_TYPE":"PAYLOAD","PERIOD":"1436.102","INCLINATION":"0.0313","APOGEE":"35798.099","PERIGEE":"35775.313","ECCENTRICITY":"0.0002702","MEAN_MOTION":"1.00271395","TLE_LINE1":"1 36032U 09058A   16238.91228599  .00000044  00000-0  00000+0 0  9998","TLE_LINE2":"2 36032   0.0313 284.2319 0002702 228.4931 207.2825  1.00271395 25025","LAUNCH_DATE":"2009-10-29","LAUNCH_SITE":"FRENCH GUIANA","OWNER":"SOCIÉTÉ EUROPÉENNE DES SATELLITES","ORBIT_TYPE":"Geosynchronous","OPERATIONAL_STATUS":"Operational","satInfo":{"lng":93.09363304687156,"lat":0.20851114274103918,"elevation":-8.370329659926819,"azimuth":221.90636695312838,"range":42617.33322458968,"height":35785.50886391694,"velocity":3.074728196780689},"x":357,"y":19,"dx":-2,"dy":-31},{"OBJECT_ID":"2009-058B","OBJECT_NAME":"THOR 6","NORAD_CAT_ID":"36033","OBJECT_TYPE":"PAYLOAD","PERIOD":"1436.099","INCLINATION":"0.0228","APOGEE":"35793.901","PERIGEE":"35779.396","ECCENTRICITY":"0.000172","MEAN_MOTION":"1.002716","TLE_LINE1":"1 36033U 09058B   16239.13452203 -.00000038  00000-0  00000+0 0  9999","TLE_LINE2":"2 36033   0.0228 209.8796 0001720 314.8671 217.6354  1.00271600 25046","LAUNCH_DATE":"2009-10-29","LAUNCH_SITE":"FRENCH GUIANA","OWNER":"NORWAY","ORBIT_TYPE":"Geosynchronous","OPERATIONAL_STATUS":"Operational","satInfo":{"lng":19.7724222402991,"lat":0.06340410379665735,"elevation":-8.507275573331412,"azimuth":295.2275777597009,"range":42657.14125998195,"height":35809.67721472324,"velocity":3.0735973163926693},"x":121,"y":-337,"dx":29,"dy":-10},{"OBJECT_ID":"2009-064A","OBJECT_NAME":"INTELSAT 14","NORAD_CAT_ID":"36097","OBJECT_TYPE":"PAYLOAD","PERIOD":"1436.079","INCLINATION":"0.0145","APOGEE":"35795.616","PERIGEE":"35776.887","ECCENTRICITY":"0.0002221","MEAN_MOTION":"1.00273015","TLE_LINE1":"1 36097U 09064A   16237.20026821 -.00000297 +00000-0 +00000-0 0  9993","TLE_LINE2":"2 36097 000.0145 113.7955 0002221 052.1829 194.0243 01.00273015024796","LAUNCH_DATE":"2009-11-23","LAUNCH_SITE":"AIR FORCE EASTERN TEST RANGE","OWNER":"INTERNATIONAL TELECOMMUNICATIONS SATELLITE ORGANIZATION (INTELSAT)","ORBIT_TYPE":"Geosynchronous","OPERATIONAL_STATUS":"Operational","satInfo":{"lng":-45.05911989177908,"lat":-0.9977957921713263,"elevation":-9.546506425059711,"azimuth":0.059119891779059706,"range":42754.16904027591,"height":35790.33047725196,"velocity":3.074407371216068},"x":-253,"y":-253,"dx":22,"dy":22},{"OBJECT_ID":"2009-065A","OBJECT_NAME":"EUTE 36B (EUTE W7)","NORAD_CAT_ID":"36101","OBJECT_TYPE":"PAYLOAD","PERIOD":"1436.113","INCLINATION":"0.0672","APOGEE":"35803.472","PERIGEE":"35770.381","ECCENTRICITY":"0.0003924","MEAN_MOTION":"1.00270607","TLE_LINE1":"1 36101U 09065A   16238.79146571  .00000128  00000-0  00000+0 0  9991","TLE_LINE2":"2 36101   0.0672 356.9893 0003924 166.8562 131.4806  1.00270607 24881","LAUNCH_DATE":"2009-11-24","LAUNCH_SITE":"TYURATAM MISSILE AND SPACE COMPLEX","OWNER":"EUROPEAN TELECOMMUNICATIONS SATELLITE ORGANIZATION (EUTELSAT)","ORBIT_TYPE":"Geosynchronous","OPERATIONAL_STATUS":"Operational","satInfo":{"lng":92.76908232080511,"lat":0.19217291172381876,"elevation":-8.389467359993825,"azimuth":222.2309176791949,"range":42603.495715401055,"height":35769.70280895409,"velocity":3.075176038069957},"x":357,"y":17,"dx":-1,"dy":-31},{"OBJECT_ID":"2009-067A","OBJECT_NAME":"INTELSAT 15","NORAD_CAT_ID":"36106","OBJECT_TYPE":"PAYLOAD","PERIOD":"1436.105","INCLINATION":"0.06","APOGEE":"35795.803","PERIGEE":"35777.731","ECCENTRICITY":"0.0002143","MEAN_MOTION":"1.00271177","TLE_LINE1":"1 36106U 09067A   16238.86297331 -.00000213 +00000-0 +00000-0 0  9994","TLE_LINE2":"2 36106 000.0600 285.3481 0002143 236.4673 208.5442 01.00271177005383","LAUNCH_DATE":"2009-11-30","LAUNCH_SITE":"TYURATAM MISSILE AND SPACE COMPLEX","OWNER":"INTERNATIONAL TELECOMMUNICATIONS SATELLITE ORGANIZATION (INTELSAT)","ORBIT_TYPE":"Geosynchronous","OPERATIONAL_STATUS":"Operational","satInfo":{"lng":65.38267132802385,"lat":1.2452829454307783,"elevation":-7.354831368011965,"azimuth":249.61732867197617,"range":42508.109434307764,"height":35790.18149692578,"velocity":3.074371486780696},"x":325,"y":-149,"dx":13,"dy":-28},{"OBJECT_ID":"2009-075A","OBJECT_NAME":"DIRECTV 12","NORAD_CAT_ID":"36131","OBJECT_TYPE":"PAYLOAD","PERIOD":"1436.096","INCLINATION":"0.0409","APOGEE":"35787.318","PERIGEE":"35785.859","ECCENTRICITY":"1.73e-05","MEAN_MOTION":"1.00271813","TLE_LINE1":"1 36131U 09075A   16238.38191622 -.00000129  00000-0  00000+0 0  9999","TLE_LINE2":"2 36131   0.0409 293.8366 0000173 238.7565 196.1552  1.00271813 24461","LAUNCH_DATE":"2009-12-29","LAUNCH_SITE":"TYURATAM MISSILE AND SPACE COMPLEX","OWNER":"UNITED STATES OF AMERICA","ORBIT_TYPE":"Geosynchronous","OPERATIONAL_STATUS":"Operational","satInfo":{"lng":-105.05310683291037,"lat":-1.1702934639719487,"elevation":-9.71524790597665,"azimuth":60.05310683291032,"range":42769.52181951218,"height":35786.79617033354,"velocity":3.0747013017466123},"x":-346,"y":93,"dx":-8,"dy":30},{"OBJECT_ID":"2010-001A","OBJECT_NAME":"BEIDOU G1","NORAD_CAT_ID":"36287","OBJECT_TYPE":"PAYLOAD","PERIOD":"1436.090","INCLINATION":"1.5246","APOGEE":"35805.425","PERIGEE":"35767.502","ECCENTRICITY":"0.0004497","MEAN_MOTION":"1.0027226","TLE_LINE1":"1 36287U 10001A   16238.85035899 -.00000310 +00000-0 +10000-3 0  9994","TLE_LINE2":"2 36287 001.5246 002.0197 0004497 212.4764 206.2152 01.00272260024256","LAUNCH_DATE":"2010-01-16","LAUNCH_SITE":"Xichang Space Center, China","OWNER":"PEOPLES REPUBLIC OF CHINA","ORBIT_TYPE":"Geosynchronous","OPERATIONAL_STATUS":"Operational","satInfo":{"lng":121.8664611286642,"lat":1.1789003969798624,"elevation":-7.422441229899692,"azimuth":193.13353887133576,"range":42502.8009051937,"height":35777.431780620725,"velocity":3.074637728509732},"x":304,"y":189,"dx":-16,"dy":-26},{"OBJECT_ID":"2010-002A","OBJECT_NAME":"RADUGA 1M-2","NORAD_CAT_ID":"36358","OBJECT_TYPE":"PAYLOAD","PERIOD":"1436.055","INCLINATION":"0.038","APOGEE":"35791.936","PERIGEE":"35779.650","ECCENTRICITY":"0.0001457","MEAN_MOTION":"1.00274651","TLE_LINE1":"1 36358U 10002A   16238.72552757 -.00000212  00000-0  00000+0 0  9993","TLE_LINE2":"2 36358   0.0380 261.9295 0001457 339.8040  78.8721  1.00274651 24089","LAUNCH_DATE":"2010-01-28","LAUNCH_SITE":"TYURATAM MISSILE AND SPACE COMPLEX","OWNER":"COMMONWEALTH OF INDEPENDENT STATES","ORBIT_TYPE":"Geosynchronous","OPERATIONAL_STATUS":"Operational","satInfo":{"lng":65.30252024692493,"lat":0.4154507920300001,"elevation":-8.166844811095679,"azimuth":249.69747975307507,"range":42600.50161219995,"height":35791.44332273501,"velocity":3.074313216690399},"x":325,"y":-150,"dx":13,"dy":-28}]